start=new Date('2021-12-24T00:00:00.000Z').valueOf();
sats=[{"EPOCH":"2021-12-23T20:36:57.675168","COUNTRY_CODE":"US","REF_FRAME":"TEME","RA_OF_ASC_NODE":"295.7172","SEMIMAJOR_AXIS":"6925.385","MEAN_ANOMALY":"309.5833","MEAN_MOTION":"15.06388199","FILE":"3249421","ARG_OF_PERICENTER":"50.5298","SITE":"AFETR","DECAY_DATE":null,"CLASSIFICATION_TYPE":"U","ECCENTRICITY":"0.00016080","MEAN_MOTION_DOT":"0.00000920","TLE_LINE2":"2 45738  53.0539 295.7172 0001608  50.5298 309.5833 15.06388199 84554","APOAPSIS":"548.363","RCS_SIZE":"LARGE","TLE_LINE1":"1 45738U 20038J   21357.85900087  .00000920  00000-0  80661-4 0  9991","CENTER_NAME":"EARTH","MEAN_MOTION_DDOT":"0.0000000000000","NORAD_CAT_ID":"45738","OBJECT_NAME":"STARLINK-1474","BSTAR":"0.00008066100000","PERIAPSIS":"546.136","INCLINATION":"53.0539","MEAN_ELEMENT_THEORY":"SGP4","LAUNCH_DATE":"2020-06-13","GP_ID":"192322905","OBJECT_TYPE":"PAYLOAD","OBJECT_ID":"2020-038J","PERIOD":"95.593","EPHEMERIS_TYPE":"0","TIME_SYSTEM":"UTC","REV_AT_EPOCH":"8455","ELEMENT_SET_NO":"999"},{"PERIOD":"95.594","EPHEMERIS_TYPE":"0","TIME_SYSTEM":"UTC","REV_AT_EPOCH":"8511","ELEMENT_SET_NO":"999","PERIAPSIS":"546.098","INCLINATION":"53.0532","MEAN_ELEMENT_THEORY":"SGP4","LAUNCH_DATE":"2020-06-13","GP_ID":"192322156","OBJECT_ID":"2020-038K","OBJECT_TYPE":"PAYLOAD","OBJECT_NAME":"STARLINK-1475","BSTAR":"0.00105410000000","APOAPSIS":"548.524","RCS_SIZE":"LARGE","TLE_LINE1":"1 45739U 20038K   21357.87376590  .00015441  00000-0  10541-2 0  9992","CENTER_NAME":"EARTH","MEAN_MOTION_DDOT":"0.0000000000000","NORAD_CAT_ID":"45739","DECAY_DATE":null,"CLASSIFICATION_TYPE":"U","ECCENTRICITY":"0.00017510","MEAN_MOTION_DOT":"0.00015441","TLE_LINE2":"2 45739  53.0532 255.6516 0001751  62.6808 297.4360 15.06368183 85119","SITE":"AFETR","REF_FRAME":"TEME","RA_OF_ASC_NODE":"255.6516","MEAN_ANOMALY":"297.4360","SEMIMAJOR_AXIS":"6925.446","MEAN_MOTION":"15.06368183","FILE":"3249421","ARG_OF_PERICENTER":"62.6808","EPOCH":"2021-12-23T20:58:13.373760","COUNTRY_CODE":"US"},{"OBJECT_NAME":"STARLINK-1479","BSTAR":"0.00017328000000","CENTER_NAME":"EARTH","NORAD_CAT_ID":"45740","MEAN_MOTION_DDOT":"0.0000000000000","APOAPSIS":"548.621","RCS_SIZE":"LARGE","TLE_LINE1":"1 45740U 20038L   21357.86636853  .00002300  00000-0  17328-3 0  9995","ELEMENT_SET_NO":"999","EPHEMERIS_TYPE":"0","PERIOD":"95.592","REV_AT_EPOCH":"8455","TIME_SYSTEM":"UTC","LAUNCH_DATE":"2020-06-13","OBJECT_ID":"2020-038L","OBJECT_TYPE":"PAYLOAD","GP_ID":"192322407","PERIAPSIS":"545.818","INCLINATION":"53.0552","MEAN_ELEMENT_THEORY":"SGP4","FILE":"3249421","MEAN_MOTION":"15.06398012","ARG_OF_PERICENTER":"59.0740","REF_FRAME":"TEME","RA_OF_ASC_NODE":"295.6952","SEMIMAJOR_AXIS":"6925.355","MEAN_ANOMALY":"301.0448","COUNTRY_CODE":"US","EPOCH":"2021-12-23T20:47:34.240992","TLE_LINE2":"2 45740  53.0552 295.6952 0002024  59.0740 301.0448 15.06398012 84550","CLASSIFICATION_TYPE":"U","DECAY_DATE":null,"MEAN_MOTION_DOT":"0.00002300","ECCENTRICITY":"0.00020240","SITE":"AFETR"},{"SITE":"AFETR","TLE_LINE2":"2 45741  53.0548 295.8282 0001979  59.6791 300.4393 15.06402242 84568","DECAY_DATE":null,"CLASSIFICATION_TYPE":"U","ECCENTRICITY":"0.00019790","MEAN_MOTION_DOT":"0.00002627","COUNTRY_CODE":"US","EPOCH":"2021-12-23T20:05:06.698976","MEAN_MOTION":"15.06402242","FILE":"3249421","ARG_OF_PERICENTER":"59.6791","REF_FRAME":"TEME","RA_OF_ASC_NODE":"295.8282","MEAN_ANOMALY":"300.4393","SEMIMAJOR_AXIS":"6925.342","LAUNCH_DATE":"2020-06-13","GP_ID":"192322652","OBJECT_ID":"2020-038M","OBJECT_TYPE":"PAYLOAD","PERIAPSIS":"545.836","INCLINATION":"53.0548","MEAN_ELEMENT_THEORY":"SGP4","ELEMENT_SET_NO":"999","PERIOD":"95.592","EPHEMERIS_TYPE":"0","TIME_SYSTEM":"UTC","REV_AT_EPOCH":"8456","CENTER_NAME":"EARTH","MEAN_MOTION_DDOT":"0.0000000000000","NORAD_CAT_ID":"45741","APOAPSIS":"548.577","RCS_SIZE":"LARGE","TLE_LINE1":"1 45741U 20038M   21357.83688309  .00002627  00000-0  19519-3 0  9992","OBJECT_NAME":"STARLINK-1480","BSTAR":"0.00019519000000"},{"COUNTRY_CODE":"US","EPOCH":"2021-12-23T13:32:20.657472","ARG_OF_PERICENTER":"58.3041","MEAN_MOTION":"15.06398216","FILE":"3249421","MEAN_ANOMALY":"301.8132","SEMIMAJOR_AXIS":"6925.354","RA_OF_ASC_NODE":"297.0418","REF_FRAME":"TEME","SITE":"AFETR","TLE_LINE2":"2 45742  53.0542 297.0418 0001890  58.3041 301.8132 15.06398216 84509","ECCENTRICITY":"0.00018900","MEAN_MOTION_DOT":"0.00003098","DECAY_DATE":null,"CLASSIFICATION_TYPE":"U","MEAN_MOTION_DDOT":"0.0000000000000","NORAD_CAT_ID":"45742","CENTER_NAME":"EARTH","TLE_LINE1":"1 45742U 20038N   21357.56412798  .00003098  00000-0  22682-3 0  9998","APOAPSIS":"548.528","RCS_SIZE":"LARGE","BSTAR":"0.00022682000000","OBJECT_NAME":"STARLINK-1481","GP_ID":"192323406","OBJECT_TYPE":"PAYLOAD","OBJECT_ID":"2020-038N","LAUNCH_DATE":"2020-06-13","MEAN_ELEMENT_THEORY":"SGP4","INCLINATION":"53.0542","PERIAPSIS":"545.910","ELEMENT_SET_NO":"999","TIME_SYSTEM":"UTC","REV_AT_EPOCH":"8450","PERIOD":"95.592","EPHEMERIS_TYPE":"0"},{"COUNTRY_CODE":"US","EPOCH":"2021-12-23T20:35:35.898432","ARG_OF_PERICENTER":"17.5718","FILE":"3249421","MEAN_MOTION":"15.06393248","MEAN_ANOMALY":"342.5302","SEMIMAJOR_AXIS":"6925.369","RA_OF_ASC_NODE":"295.6783","REF_FRAME":"TEME","SITE":"AFETR","TLE_LINE2":"2 45743  53.0549 295.6783 0000909  17.5718 342.5302 15.06393248 84550","MEAN_MOTION_DOT":"0.00001502","ECCENTRICITY":"0.00009090","CLASSIFICATION_TYPE":"U","DECAY_DATE":null,"NORAD_CAT_ID":"45743","MEAN_MOTION_DDOT":"0.0000000000000","CENTER_NAME":"EARTH","TLE_LINE1":"1 45743U 20038P   21357.85805438  .00001502  00000-0  11972-3 0  9996","RCS_SIZE":"LARGE","APOAPSIS":"547.864","BSTAR":"0.00011972000000","OBJECT_NAME":"STARLINK-1483","OBJECT_ID":"2020-038P","OBJECT_TYPE":"PAYLOAD","GP_ID":"192321656","LAUNCH_DATE":"2020-06-13","MEAN_ELEMENT_THEORY":"SGP4","INCLINATION":"53.0549","PERIAPSIS":"546.605","ELEMENT_SET_NO":"999","REV_AT_EPOCH":"8455","TIME_SYSTEM":"UTC","EPHEMERIS_TYPE":"0","PERIOD":"95.593"},{"ECCENTRICITY":"0.00018810","MEAN_MOTION_DOT":"0.00010308","DECAY_DATE":null,"CLASSIFICATION_TYPE":"U","TLE_LINE2":"2 45744  53.0523 295.6129 0001881  60.1416 299.9759 15.06401139 84567","SITE":"AFETR","SEMIMAJOR_AXIS":"6925.345","MEAN_ANOMALY":"299.9759","REF_FRAME":"TEME","RA_OF_ASC_NODE":"295.6129","ARG_OF_PERICENTER":"60.1416","MEAN_MOTION":"15.06401139","FILE":"3249421","EPOCH":"2021-12-23T21:14:07.591776","COUNTRY_CODE":"US","TIME_SYSTEM":"UTC","REV_AT_EPOCH":"8456","PERIOD":"95.592","EPHEMERIS_TYPE":"0","ELEMENT_SET_NO":"999","MEAN_ELEMENT_THEORY":"SGP4","INCLINATION":"53.0523","PERIAPSIS":"545.907","GP_ID":"192321907","OBJECT_ID":"2020-038Q","OBJECT_TYPE":"PAYLOAD","LAUNCH_DATE":"2020-06-13","BSTAR":"0.00070988000000","OBJECT_NAME":"STARLINK-1500","TLE_LINE1":"1 45744U 20038Q   21357.88481009  .00010308  00000-0  70988-3 0  9990","APOAPSIS":"548.513","RCS_SIZE":"LARGE","MEAN_MOTION_DDOT":"0.0000000000000","NORAD_CAT_ID":"45744","CENTER_NAME":"EARTH"},{"TIME_SYSTEM":"UTC","REV_AT_EPOCH":"8450","PERIOD":"95.592","EPHEMERIS_TYPE":"0","ELEMENT_SET_NO":"999","MEAN_ELEMENT_THEORY":"SGP4","INCLINATION":"53.0556","PERIAPSIS":"546.063","GP_ID":"192323153","OBJECT_ID":"2020-038R","OBJECT_TYPE":"PAYLOAD","LAUNCH_DATE":"2020-06-13","BSTAR":"-0.00002565500000","OBJECT_NAME":"STARLINK-1503","TLE_LINE1":"1 45745U 20038R   21357.54201384 -.00000664  00000-0 -25655-4 0  9998","APOAPSIS":"548.379","RCS_SIZE":"LARGE","MEAN_MOTION_DDOT":"0.0000000000000","NORAD_CAT_ID":"45745","CENTER_NAME":"EARTH","ECCENTRICITY":"0.00016720","MEAN_MOTION_DOT":"-0.00000664","DECAY_DATE":null,"CLASSIFICATION_TYPE":"U","TLE_LINE2":"2 45745  53.0556 297.1516 0001672  54.6909 305.4236 15.06397654 84507","SITE":"AFETR","MEAN_ANOMALY":"305.4236","SEMIMAJOR_AXIS":"6925.356","RA_OF_ASC_NODE":"297.1516","REF_FRAME":"TEME","ARG_OF_PERICENTER":"54.6909","MEAN_MOTION":"15.06397654","FILE":"3249421","EPOCH":"2021-12-23T13:00:29.995776","COUNTRY_CODE":"US"},{"SITE":"AFETR","DECAY_DATE":null,"CLASSIFICATION_TYPE":"U","ECCENTRICITY":"0.00017460","MEAN_MOTION_DOT":"0.00012798","TLE_LINE2":"2 45746  53.0530 297.0762 0001746  63.0441 297.0726 15.06411825 84506","EPOCH":"2021-12-23T13:21:42.799968","COUNTRY_CODE":"US","REF_FRAME":"TEME","RA_OF_ASC_NODE":"297.0762","MEAN_ANOMALY":"297.0726","SEMIMAJOR_AXIS":"6925.312","MEAN_MOTION":"15.06411825","FILE":"3249421","ARG_OF_PERICENTER":"63.0441","PERIAPSIS":"545.968","INCLINATION":"53.0530","MEAN_ELEMENT_THEORY":"SGP4","LAUNCH_DATE":"2020-06-13","GP_ID":"192322906","OBJECT_TYPE":"PAYLOAD","OBJECT_ID":"2020-038S","PERIOD":"95.591","EPHEMERIS_TYPE":"0","TIME_SYSTEM":"UTC","REV_AT_EPOCH":"8450","ELEMENT_SET_NO":"999","APOAPSIS":"548.386","RCS_SIZE":"LARGE","TLE_LINE1":"1 45746U 20038S   21357.55674537  .00012798  00000-0  87625-3 0  9997","CENTER_NAME":"EARTH","MEAN_MOTION_DDOT":"0.0000000000000","NORAD_CAT_ID":"45746","OBJECT_NAME":"STARLINK-1504","BSTAR":"0.00087625000000"},{"ECCENTRICITY":"0.00017000","MEAN_MOTION_DOT":"-0.00003011","DECAY_DATE":null,"CLASSIFICATION_TYPE":"U","TLE_LINE2":"2 45747  53.0552 295.5724 0001700  55.3716 304.7433 15.06416268 84564","SITE":"AFETR","MEAN_ANOMALY":"304.7433","SEMIMAJOR_AXIS":"6925.299","REF_FRAME":"TEME","RA_OF_ASC_NODE":"295.5724","ARG_OF_PERICENTER":"55.3716","MEAN_MOTION":"15.06416268","FILE":"3249421","EPOCH":"2021-12-23T21:24:42.554880","COUNTRY_CODE":"US","TIME_SYSTEM":"UTC","REV_AT_EPOCH":"8456","PERIOD":"95.591","EPHEMERIS_TYPE":"0","ELEMENT_SET_NO":"999","MEAN_ELEMENT_THEORY":"SGP4","INCLINATION":"53.0552","PERIAPSIS":"545.986","GP_ID":"192322157","OBJECT_TYPE":"PAYLOAD","OBJECT_ID":"2020-038T","LAUNCH_DATE":"2020-06-13","BSTAR":"-0.00018322000000","OBJECT_NAME":"STARLINK-1506","TLE_LINE1":"1 45747U 20038T   21357.89215920 -.00003011  00000-0 -18322-3 0  9990","APOAPSIS":"548.341","RCS_SIZE":"LARGE","MEAN_MOTION_DDOT":"0.0000000000000","NORAD_CAT_ID":"45747","CENTER_NAME":"EARTH"}];
